{"type": "FeatureCollection", "features": [ {"type": "Feature", "properties": {"norad_id": 40534, "name": "GPS BIIF-9  (PRN 26)", "group": "gps-ops", "lat": 44.474471424926875, "lon": -100.95511357889937, "alt_km": 19913.062168671833, "timestamp": "2025-12-16T03:53:27.314308+00:00", "meta": {"OBJECT_NAME": "GPS BIIF-9  (PRN 26)", "OBJECT_ID": "2015-013A", "EPOCH": "2025-12-15T01:58:15.977568", "MEAN_MOTION": 2.00562514, "ECCENTRICITY": 0.01071546, "INCLINATION": 53.1974, "RA_OF_ASC_NODE": 211.7932, "ARG_OF_PERICENTER": 38.5371, "MEAN_ANOMALY": 322.3085, "EPHEMERIS_TYPE": 0, "CLASSIFICATION_TYPE": "U", "NORAD_CAT_ID": 40534, "ELEMENT_SET_NO": 999, "REV_AT_EPOCH": 7813, "BSTAR": 0, "MEAN_MOTION_DOT": 6.8e-07, "MEAN_MOTION_DDOT": 0}, "tle": {"line1": "1 40534U 15013A   25349.08212937  .00000068  00000+0  00000+0 0  9993", "line2": "2 40534  53.1974 211.7932 0107154  38.5371 322.3085  2.00562514 78134"}}, "geometry": {"type": "Point", "coordinates": [-100.95511357889937, 44.474471424926875]}}, {"type": "Feature", "properties": {"norad_id": 40730, "name": "GPS BIIF-10 (PRN 08)", "group": "gps-ops", "lat": -43.01422331521269, "lon": -127.77210476412611, "alt_km": 20153.560118469755, "timestamp": "2025-12-16T03:53:27.314325+00:00", "meta": {"OBJECT_NAME": "GPS BIIF-10 (PRN 08)", "OBJECT_ID": "2015-033A", "EPOCH": "2025-12-15T05:50:29.855904", "MEAN_MOTION": 2.00565616, "ECCENTRICITY": 0.01111257, "INCLINATION": 54.1284, "RA_OF_ASC_NODE": 274.6698, "ARG_OF_PERICENTER": 26.8692, "MEAN_ANOMALY": 333.7166, "EPHEMERIS_TYPE": 0, "CLASSIFICATION_TYPE": "U", "NORAD_CAT_ID": 40730, "ELEMENT_SET_NO": 999, "REV_AT_EPOCH": 7630, "BSTAR": 0, "MEAN_MOTION_DOT": -6.6e-07, "MEAN_MOTION_DDOT": 0}, "tle": {"line1": "1 40730U 15033A   25349.24340111 -.00000066  00000+0  00000+0 0  9996", "line2": "2 40730  54.1284 274.6698 0111125  26.8692 333.7166  2.00565616 76302"}}, "geometry": {"type": "Point", "coordinates": [-127.77210476412611, -43.01422331521269]}}, {"type": "Feature", "properties": {"norad_id": 41019, "name": "GPS BIIF-11 (PRN 10)", "group": "gps-ops", "lat": -55.57320577671261, "lon": -69.69729286010565, "alt_km": 19931.875239432535, "timestamp": "2025-12-16T03:53:27.314348+00:00", "meta": {"OBJECT_NAME": "GPS BIIF-11 (PRN 10)", "OBJECT_ID": "2015-062A", "EPOCH": "2025-12-12T19:26:17.014560", "MEAN_MOTION": 2.00567164, "ECCENTRICITY": 0.01108438, "INCLINATION": 56.8322, "RA_OF_ASC_NODE": 37.9995, "ARG_OF_PERICENTER": 229.9503, "MEAN_ANOMALY": 129.1214, "EPHEMERIS_TYPE": 0, "CLASSIFICATION_TYPE": "U", "NORAD_CAT_ID": 41019, "ELEMENT_SET_NO": 999, "REV_AT_EPOCH": 7409, "BSTAR": 0, "MEAN_MOTION_DOT": -9.6e-07, "MEAN_MOTION_DDOT": 0}, "tle": {"line1": "1 41019U 15062A   25346.80991915 -.00000096  00000+0  00000+0 0  9995", "line2": "2 41019  56.8322  37.9995 0110843 229.9503 129.1214  2.00567164 74093"}}, "geometry": {"type": "Point", "coordinates": [-69.69729286010565, -55.57320577671261]}}, {"type": "Feature", "properties": {"norad_id": 41328, "name": "GPS BIIF-12 (PRN 32)", "group": "gps-ops", "lat": -15.726014751260852, "lon": -72.09444325170547, "alt_km": 20008.73220598493, "timestamp": "2025-12-16T03:53:27.314369+00:00", "meta": {"OBJECT_NAME": "GPS BIIF-12 (PRN 32)", "OBJECT_ID": "2016-007A", "EPOCH": "2025-12-14T09:19:00.023808", "MEAN_MOTION": 2.00560678, "ECCENTRICITY": 0.00922324, "INCLINATION": 55.4071, "RA_OF_ASC_NODE": 96.7915, "ARG_OF_PERICENTER": 243.6085, "MEAN_ANOMALY": 115.4276, "EPHEMERIS_TYPE": 0, "CLASSIFICATION_TYPE": "U", "NORAD_CAT_ID": 41328, "ELEMENT_SET_NO": 999, "REV_AT_EPOCH": 7213, "BSTAR": 0, "MEAN_MOTION_DOT": -2.9e-07, "MEAN_MOTION_DDOT": 0}, "tle": {"line1": "1 41328U 16007A   25348.38819472 -.00000029  00000+0  00000+0 0  9996", "line2": "2 41328  55.4071  96.7915 0092232 243.6085 115.4276  2.00560678 72138"}}, "geometry": {"type": "Point", "coordinates": [-72.09444325170547, -15.726014751260852]}}, {"type": "Feature", "properties": {"norad_id": 43873, "name": "GPS BIII-1  (PRN 04)", "group": "gps-ops", "lat": 55.37226839105322, "lon": -163.44814680137213, "alt_km": 20195.243629575172, "timestamp": "2025-12-16T03:53:27.314387+00:00", "meta": {"OBJECT_NAME": "GPS BIII-1  (PRN 04)", "OBJECT_ID": "2018-109A", "EPOCH": "2025-12-14T18:33:31.413600", "MEAN_MOTION": 2.00553757, "ECCENTRICITY": 0.00374, "INCLINATION": 55.5684, "RA_OF_ASC_NODE": 99.4666, "ARG_OF_PERICENTER": 195.0912, "MEAN_ANOMALY": 336.5701, "EPHEMERIS_TYPE": 0, "CLASSIFICATION_TYPE": "U", "NORAD_CAT_ID": 43873, "ELEMENT_SET_NO": 999, "REV_AT_EPOCH": 5137, "BSTAR": 0, "MEAN_MOTION_DOT": -2.6e-07, "MEAN_MOTION_DDOT": 0}, "tle": {"line1": "1 43873U 18109A   25348.77328025 -.00000026  00000+0  00000+0 0  9997", "line2": "2 43873  55.5684  99.4666 0037400 195.0912 336.5701  2.00553757 51376"}}, "geometry": {"type": "Point", "coordinates": [-163.44814680137213, 55.37226839105322]}}, {"type": "Feature", "properties": {"norad_id": 44506, "name": "GPS BIII-2  (PRN 18)", "group": "gps-ops", "lat": -6.74339071867312, "lon": -26.21636868116801, "alt_km": 20319.614431746388, "timestamp": "2025-12-16T03:53:27.314399+00:00", "meta": {"OBJECT_NAME": "GPS BIII-2  (PRN 18)", "OBJECT_ID": "2019-056A", "EPOCH": "2025-12-14T10:00:28.721376", "MEAN_MOTION": 2.00566469, "ECCENTRICITY": 0.00577186, "INCLINATION": 55.7208, "RA_OF_ASC_NODE": 338.4855, "ARG_OF_PERICENTER": 198.4901, "MEAN_ANOMALY": 332.9722, "EPHEMERIS_TYPE": 0, "CLASSIFICATION_TYPE": "U", "NORAD_CAT_ID": 44506, "ELEMENT_SET_NO": 999, "REV_AT_EPOCH": 4636, "BSTAR": 0, "MEAN_MOTION_DOT": -8.9e-07, "MEAN_MOTION_DDOT": 0}, "tle": {"line1": "1 44506U 19056A   25348.41699909 -.00000089  00000+0  00000+0 0  9995", "line2": "2 44506  55.7208 338.4855 0057718 198.4901 332.9722  2.00566469 46369"}}, "geometry": {"type": "Point", "coordinates": [-26.21636868116801, -6.74339071867312]}}, {"type": "Feature", "properties": {"norad_id": 45854, "name": "GPS BIII-3  (PRN 23)", "group": "gps-ops", "lat": -48.47146462544912, "lon": -12.1614302581033, "alt_km": 20194.12932186377, "timestamp": "2025-12-16T03:53:27.314411+00:00", "meta": {"OBJECT_NAME": "GPS BIII-3  (PRN 23)", "OBJECT_ID": "2020-041A", "EPOCH": "2025-12-15T00:47:17.642112", "MEAN_MOTION": 2.00562009, "ECCENTRICITY": 0.00605565, "INCLINATION": 56.5486, "RA_OF_ASC_NODE": 36.096, "ARG_OF_PERICENTER": 203.5023, "MEAN_ANOMALY": 356.6699, "EPHEMERIS_TYPE": 0, "CLASSIFICATION_TYPE": "U", "NORAD_CAT_ID": 45854, "ELEMENT_SET_NO": 999, "REV_AT_EPOCH": 4034, "BSTAR": 0, "MEAN_MOTION_DOT": -9.1e-07, "MEAN_MOTION_DDOT": 0}, "tle": {"line1": "1 45854U 20041A   25349.03284308 -.00000091  00000+0  00000+0 0  9993", "line2": "2 45854  56.5486  36.0960 0060556 203.5023 356.6699  2.00562009 40342"}}, "geometry": {"type": "Point", "coordinates": [-12.1614302581033, -48.47146462544912]}}, {"type": "Feature", "properties": {"norad_id": 46826, "name": "GPS BIII-4  (PRN 14)", "group": "gps-ops", "lat": -53.921803292415625, "lon": 123.50680857583812, "alt_km": 20110.672693432938, "timestamp": "2025-12-16T03:53:27.314422+00:00", "meta": {"OBJECT_NAME": "GPS BIII-4  (PRN 14)", "OBJECT_ID": "2020-078A", "EPOCH": "2025-12-15T00:45:28.777248", "MEAN_MOTION": 2.00566873, "ECCENTRICITY": 0.00647232, "INCLINATION": 54.0146, "RA_OF_ASC_NODE": 218.2479, "ARG_OF_PERICENTER": 203.3837, "MEAN_ANOMALY": 326.9194, "EPHEMERIS_TYPE": 0, "CLASSIFICATION_TYPE": "U", "NORAD_CAT_ID": 46826, "ELEMENT_SET_NO": 999, "REV_AT_EPOCH": 3781, "BSTAR": 0, "MEAN_MOTION_DOT": 5.5e-07, "MEAN_MOTION_DDOT": 0}, "tle": {"line1": "1 46826U 20078A   25349.03158307  .00000055  00000+0  00000+0 0  9991", "line2": "2 46826  54.0146 218.2479 0064723 203.3837 326.9194  2.00566873 37819"}}, "geometry": {"type": "Point", "coordinates": [123.50680857583812, -53.921803292415625]}}, {"type": "Feature", "properties": {"norad_id": 48859, "name": "GPS BIII-5  (PRN 11)", "group": "gps-ops", "lat": 55.20555940860703, "lon": 72.66179103846575, "alt_km": 20228.35839934317, "timestamp": "2025-12-16T03:53:27.314437+00:00", "meta": {"OBJECT_NAME": "GPS BIII-5  (PRN 11)", "OBJECT_ID": "2021-054A", "EPOCH": "2025-12-08T04:14:32.423424", "MEAN_MOTION": 2.00553627, "ECCENTRICITY": 0.0024678, "INCLINATION": 55.2581, "RA_OF_ASC_NODE": 340.1367, "ARG_OF_PERICENTER": 233.3994, "MEAN_ANOMALY": 212.8593, "EPHEMERIS_TYPE": 0, "CLASSIFICATION_TYPE": "U", "NORAD_CAT_ID": 48859, "ELEMENT_SET_NO": 999, "REV_AT_EPOCH": 3292, "BSTAR": 0, "MEAN_MOTION_DOT": -8.6e-07, "MEAN_MOTION_DDOT": 0}, "tle": {"line1": "1 48859U 21054A   25342.17676416 -.00000086  00000+0  00000+0 0  9993", "line2": "2 48859  55.2581 340.1367 0024678 233.3994 212.8593  2.00553627 32922"}}, "geometry": {"type": "Point", "coordinates": [72.66179103846575, 55.20555940860703]}}, {"type": "Feature", "properties": {"norad_id": 55268, "name": "GPS BIII-6  (PRN 28)", "group": "gps-ops", "lat": 35.93295369072118, "lon": -54.69828670255802, "alt_km": 20185.707693706907, "timestamp": "2025-12-16T03:53:27.314450+00:00", "meta": {"OBJECT_NAME": "GPS BIII-6  (PRN 28)", "OBJECT_ID": "2023-009A", "EPOCH": "2025-12-13T12:37:03.021024", "MEAN_MOTION": 2.00555696, "ECCENTRICITY": 0.00037118, "INCLINATION": 55.1051, "RA_OF_ASC_NODE": 155.8142, "ARG_OF_PERICENTER": 357.4368, "MEAN_ANOMALY": 33.2544, "EPHEMERIS_TYPE": 0, "CLASSIFICATION_TYPE": "U", "NORAD_CAT_ID": 55268, "ELEMENT_SET_NO": 999, "REV_AT_EPOCH": 2152, "BSTAR": 0, "MEAN_MOTION_DOT": 1e-06, "MEAN_MOTION_DDOT": 0}, "tle": {"line1": "1 55268U 23009A   25347.52572941  .00000100  00000+0  00000+0 0  9995", "line2": "2 55268  55.1051 155.8142 0003711 357.4368  33.2544  2.00555696 21528"}}, "geometry": {"type": "Point", "coordinates": [-54.69828670255802, 35.93295369072118]}}]}